start=new Date('2022-11-25T00:00:00.000Z').valueOf();
sats=[{"EPOCH":"2022-11-24T22:00:00.999936","BSTAR":"-0.00176970000000","RCS_SIZE":"LARGE","CENTER_NAME":"EARTH","RA_OF_ASC_NODE":"257.4975","DECAY_DATE":null,"GP_ID":"218726215","NORAD_CAT_ID":"53799","MEAN_MOTION_DDOT":"0.0000000000000","REF_FRAME":"TEME","ECCENTRICITY":"0.00013690","OBJECT_NAME":"STARLINK-4710","EPHEMERIS_TYPE":"0","COUNTRY_CODE":"US","SEMIMAJOR_AXIS":"6794.896","REV_AT_EPOCH":"130","CLASSIFICATION_TYPE":"U","MEAN_MOTION_DOT":"-0.00099985","FILE":"3669335","LAUNCH_DATE":"2022-09-11","OBJECT_ID":"2022-111AC","PERIOD":"92.904","MEAN_MOTION":"15.49988683","OBJECT_TYPE":"PAYLOAD","PERIAPSIS":"415.831","INCLINATION":"53.2148","APOAPSIS":"417.691","SITE":"AFETR","TLE_LINE2":"2 53799  53.2148 257.4975 0001369  90.6046 106.8735 15.49988683  1306","MEAN_ELEMENT_THEORY":"SGP4","TIME_SYSTEM":"UTC","MEAN_ANOMALY":"106.8735","ARG_OF_PERICENTER":"90.6046","TLE_LINE1":"1 53799U 22111AC  22328.91667824 -.00099985  00000-0 -17697-2 0  9994","ELEMENT_SET_NO":"999"},{"EPOCH":"2022-11-24T22:00:00.999936","RA_OF_ASC_NODE":"257.5042","RCS_SIZE":"LARGE","BSTAR":"-0.00094155000000","CENTER_NAME":"EARTH","GP_ID":"218726391","DECAY_DATE":null,"NORAD_CAT_ID":"53800","ECCENTRICITY":"0.00011170","REF_FRAME":"TEME","MEAN_MOTION_DDOT":"0.0000000000000","COUNTRY_CODE":"US","EPHEMERIS_TYPE":"0","OBJECT_NAME":"STARLINK-4720","SEMIMAJOR_AXIS":"6794.950","REV_AT_EPOCH":"130","CLASSIFICATION_TYPE":"U","MEAN_MOTION_DOT":"-0.00053684","FILE":"3669335","OBJECT_TYPE":"PAYLOAD","OBJECT_ID":"2022-111AD","LAUNCH_DATE":"2022-09-11","MEAN_MOTION":"15.49970267","PERIOD":"92.905","PERIAPSIS":"416.056","TLE_LINE2":"2 53800  53.2132 257.5042 0001117  86.1780 108.2904 15.49970267  1307","INCLINATION":"53.2132","SITE":"AFETR","APOAPSIS":"417.574","MEAN_ANOMALY":"108.2904","ARG_OF_PERICENTER":"86.1780","MEAN_ELEMENT_THEORY":"SGP4","TIME_SYSTEM":"UTC","TLE_LINE1":"1 53800U 22111AD  22328.91667824 -.00053684  00000-0 -94155-3 0  9998","ELEMENT_SET_NO":"999"},{"DECAY_DATE":null,"GP_ID":"218726567","CENTER_NAME":"EARTH","BSTAR":"-0.00152860000000","RCS_SIZE":"LARGE","RA_OF_ASC_NODE":"257.4868","EPOCH":"2022-11-24T22:00:00.999936","OBJECT_NAME":"STARLINK-4715","EPHEMERIS_TYPE":"0","COUNTRY_CODE":"US","REF_FRAME":"TEME","MEAN_MOTION_DDOT":"0.0000000000000","ECCENTRICITY":"0.00009680","NORAD_CAT_ID":"53801","MEAN_MOTION":"15.49979871","PERIOD":"92.904","OBJECT_ID":"2022-111AE","LAUNCH_DATE":"2022-09-11","OBJECT_TYPE":"PAYLOAD","FILE":"3669335","MEAN_MOTION_DOT":"-0.00086542","REV_AT_EPOCH":"130","CLASSIFICATION_TYPE":"U","SEMIMAJOR_AXIS":"6794.922","ELEMENT_SET_NO":"999","TLE_LINE1":"1 53801U 22111AE  22328.91667824 -.00086542  00000-0 -15286-2 0  9995","TIME_SYSTEM":"UTC","MEAN_ELEMENT_THEORY":"SGP4","ARG_OF_PERICENTER":"99.1979","MEAN_ANOMALY":"104.3651","APOAPSIS":"417.445","SITE":"AFETR","INCLINATION":"53.2143","TLE_LINE2":"2 53801  53.2143 257.4868 0000968  99.1979 104.3651 15.49979871  1308","PERIAPSIS":"416.129"},{"CLASSIFICATION_TYPE":"U","REV_AT_EPOCH":"130","SEMIMAJOR_AXIS":"6795.194","MEAN_MOTION_DOT":"-0.00006854","FILE":"3669335","PERIOD":"92.910","MEAN_MOTION":"15.49886747","LAUNCH_DATE":"2022-09-11","OBJECT_ID":"2022-111AF","OBJECT_TYPE":"PAYLOAD","PERIAPSIS":"416.407","APOAPSIS":"417.711","SITE":"AFETR","INCLINATION":"53.2147","TLE_LINE2":"2 53802  53.2147 257.4887 0000960  68.6082 131.7111 15.49886747  1306","TIME_SYSTEM":"UTC","MEAN_ELEMENT_THEORY":"SGP4","ARG_OF_PERICENTER":"68.6082","MEAN_ANOMALY":"131.7111","ELEMENT_SET_NO":"999","TLE_LINE1":"1 53802U 22111AF  22328.91667824 -.00006854  00000-0 -11291-3 0  9997","EPOCH":"2022-11-24T22:00:00.999936","CENTER_NAME":"EARTH","BSTAR":"-0.00011291000000","RCS_SIZE":"LARGE","RA_OF_ASC_NODE":"257.4887","DECAY_DATE":null,"GP_ID":"218727082","NORAD_CAT_ID":"53802","REF_FRAME":"TEME","MEAN_MOTION_DDOT":"0.0000000000000","ECCENTRICITY":"0.00009600","OBJECT_NAME":"STARLINK-4726","EPHEMERIS_TYPE":"0","COUNTRY_CODE":"US"},{"CLASSIFICATION_TYPE":"U","REV_AT_EPOCH":"130","SEMIMAJOR_AXIS":"6727.826","MEAN_MOTION_DOT":"0.00026133","FILE":"3669335","MEAN_MOTION":"15.73224367","PERIOD":"91.532","OBJECT_ID":"2022-111AG","LAUNCH_DATE":"2022-09-11","OBJECT_TYPE":"PAYLOAD","PERIAPSIS":"347.195","SITE":"AFETR","APOAPSIS":"352.186","INCLINATION":"53.2154","TLE_LINE2":"2 53803  53.2154 256.6306 0003709  10.8173 256.4776 15.73224367  1309","TIME_SYSTEM":"UTC","MEAN_ELEMENT_THEORY":"SGP4","ARG_OF_PERICENTER":"10.8173","MEAN_ANOMALY":"256.4776","ELEMENT_SET_NO":"999","TLE_LINE1":"1 53803U 22111AG  22328.91667824  .00026133  00000-0  18980-3 0  9990","EPOCH":"2022-11-24T22:00:00.999936","CENTER_NAME":"EARTH","BSTAR":"0.00018980000000","RCS_SIZE":"MEDIUM","RA_OF_ASC_NODE":"256.6306","DECAY_DATE":null,"GP_ID":"218725858","NORAD_CAT_ID":"53803","REF_FRAME":"TEME","MEAN_MOTION_DDOT":"0.0000000000000","ECCENTRICITY":"0.00037090","OBJECT_NAME":"STARLINK-4727","COUNTRY_CODE":"US","EPHEMERIS_TYPE":"0"},{"CENTER_NAME":"EARTH","BSTAR":"-0.00003525100000","RCS_SIZE":"LARGE","RA_OF_ASC_NODE":"256.6336","EPOCH":"2022-11-24T22:00:00.999936","DECAY_DATE":null,"GP_ID":"218726034","NORAD_CAT_ID":"53804","OBJECT_NAME":"STARLINK-4729","COUNTRY_CODE":"US","EPHEMERIS_TYPE":"0","REF_FRAME":"TEME","MEAN_MOTION_DDOT":"0.0000000000000","ECCENTRICITY":"0.00035960","MEAN_MOTION_DOT":"-0.00005574","REV_AT_EPOCH":"130","CLASSIFICATION_TYPE":"U","SEMIMAJOR_AXIS":"6727.845","PERIOD":"91.532","MEAN_MOTION":"15.73217708","LAUNCH_DATE":"2022-09-11","OBJECT_ID":"2022-111AH","OBJECT_TYPE":"PAYLOAD","FILE":"3669335","SITE":"AFETR","APOAPSIS":"352.129","INCLINATION":"53.2141","TLE_LINE2":"2 53804  53.2141 256.6336 0003596   7.9454 258.8641 15.73217708  1300","PERIAPSIS":"347.290","ELEMENT_SET_NO":"999","TLE_LINE1":"1 53804U 22111AH  22328.91667824 -.00005574  00000-0 -35251-4 0  9990","TIME_SYSTEM":"UTC","MEAN_ELEMENT_THEORY":"SGP4","ARG_OF_PERICENTER":"7.9454","MEAN_ANOMALY":"258.8641"},{"FILE":"3669335","OBJECT_TYPE":"PAYLOAD","OBJECT_ID":"2022-111AJ","LAUNCH_DATE":"2022-09-11","PERIOD":"91.529","MEAN_MOTION":"15.73267986","SEMIMAJOR_AXIS":"6727.701","REV_AT_EPOCH":"130","CLASSIFICATION_TYPE":"U","MEAN_MOTION_DOT":"-0.00074374","MEAN_ANOMALY":"254.9425","ARG_OF_PERICENTER":"12.9942","MEAN_ELEMENT_THEORY":"SGP4","TIME_SYSTEM":"UTC","TLE_LINE1":"1 53805U 22111AJ  22328.91667824 -.00074374  00000-0 -52845-3 0  9992","ELEMENT_SET_NO":"999","PERIAPSIS":"347.402","TLE_LINE2":"2 53805  53.2156 256.6295 0003217  12.9942 254.9425 15.73267986  1309","INCLINATION":"53.2156","SITE":"AFETR","APOAPSIS":"351.731","GP_ID":"218726913","DECAY_DATE":null,"EPOCH":"2022-11-24T22:00:00.999936","RA_OF_ASC_NODE":"256.6295","RCS_SIZE":"LARGE","BSTAR":"-0.00052845000000","CENTER_NAME":"EARTH","ECCENTRICITY":"0.00032170","MEAN_MOTION_DDOT":"0.0000000000000","REF_FRAME":"TEME","COUNTRY_CODE":"US","EPHEMERIS_TYPE":"0","OBJECT_NAME":"STARLINK-4763","NORAD_CAT_ID":"53805"},{"FILE":"3669335","OBJECT_ID":"2022-111AK","LAUNCH_DATE":"2022-09-11","MEAN_MOTION":"15.73220378","PERIOD":"91.532","OBJECT_TYPE":"PAYLOAD","SEMIMAJOR_AXIS":"6727.837","REV_AT_EPOCH":"130","CLASSIFICATION_TYPE":"U","MEAN_MOTION_DOT":"0.00024499","MEAN_ELEMENT_THEORY":"SGP4","TIME_SYSTEM":"UTC","MEAN_ANOMALY":"260.0683","ARG_OF_PERICENTER":"8.4070","TLE_LINE1":"1 53806U 22111AK  22328.91667824  .00024499  00000-0  17828-3 0  9996","ELEMENT_SET_NO":"999","PERIAPSIS":"347.337","INCLINATION":"53.2152","APOAPSIS":"352.068","SITE":"AFETR","TLE_LINE2":"2 53806  53.2152 256.6309 0003516   8.4070 260.0683 15.73220378  1304","DECAY_DATE":null,"GP_ID":"218726737","EPOCH":"2022-11-24T22:00:00.999936","RCS_SIZE":"LARGE","BSTAR":"0.00017828000000","CENTER_NAME":"EARTH","RA_OF_ASC_NODE":"256.6309","REF_FRAME":"TEME","MEAN_MOTION_DDOT":"0.0000000000000","ECCENTRICITY":"0.00035160","OBJECT_NAME":"STARLINK-4768","EPHEMERIS_TYPE":"0","COUNTRY_CODE":"US","NORAD_CAT_ID":"53806"},{"FILE":"3669335","OBJECT_TYPE":"PAYLOAD","OBJECT_ID":"2022-114A","LAUNCH_DATE":"2022-09-19","MEAN_MOTION":"15.08837420","PERIOD":"95.438","SEMIMAJOR_AXIS":"6917.888","REV_AT_EPOCH":"130","CLASSIFICATION_TYPE":"U","MEAN_MOTION_DOT":"0.00026170","MEAN_ANOMALY":"281.2049","ARG_OF_PERICENTER":"12.2376","MEAN_ELEMENT_THEORY":"SGP4","TIME_SYSTEM":"UTC","TLE_LINE1":"1 53818U 22114A   22328.91667824  .00026170  00000-0  16564-2 0  9995","ELEMENT_SET_NO":"999","PERIAPSIS":"538.839","TLE_LINE2":"2 53818  53.2153 294.8484 0001322  12.2376 281.2049 15.08837420  1302","INCLINATION":"53.2153","APOAPSIS":"540.668","SITE":"AFETR","GP_ID":"218725859","DECAY_DATE":null,"EPOCH":"2022-11-24T22:00:00.999936","RA_OF_ASC_NODE":"294.8484","BSTAR":"0.00165640000000","RCS_SIZE":"LARGE","CENTER_NAME":"EARTH","ECCENTRICITY":"0.00013220","MEAN_MOTION_DDOT":"0.0000000000000","REF_FRAME":"TEME","COUNTRY_CODE":"US","EPHEMERIS_TYPE":"0","OBJECT_NAME":"STARLINK-4749","NORAD_CAT_ID":"53818"},{"ELEMENT_SET_NO":"999","TLE_LINE1":"1 53819U 22114B   22328.91667824  .00028614  00000-0  18095-2 0  9992","ARG_OF_PERICENTER":"61.8190","MEAN_ANOMALY":"271.7132","TIME_SYSTEM":"UTC","MEAN_ELEMENT_THEORY":"SGP4","TLE_LINE2":"2 53819  53.2147 294.7668 0001639  61.8190 271.7132 15.08822314  1307","APOAPSIS":"540.933","SITE":"AFETR","INCLINATION":"53.2147","PERIAPSIS":"538.666","OBJECT_TYPE":"PAYLOAD","MEAN_MOTION":"15.08822314","PERIOD":"95.439","LAUNCH_DATE":"2022-09-19","OBJECT_ID":"2022-114B","FILE":"3669335","MEAN_MOTION_DOT":"0.00028614","REV_AT_EPOCH":"130","CLASSIFICATION_TYPE":"U","SEMIMAJOR_AXIS":"6917.934","COUNTRY_CODE":"US","EPHEMERIS_TYPE":"0","OBJECT_NAME":"STARLINK-4738","ECCENTRICITY":"0.00016390","MEAN_MOTION_DDOT":"0.0000000000000","REF_FRAME":"TEME","NORAD_CAT_ID":"53819","GP_ID":"218726035","DECAY_DATE":null,"RA_OF_ASC_NODE":"294.7668","CENTER_NAME":"EARTH","RCS_SIZE":"LARGE","BSTAR":"0.00180950000000","EPOCH":"2022-11-24T22:00:00.999936"}];
